[{"OBJECT_NAME":"STARLINK-5940","OBJECT_ID":"2023-042AC","EPOCH":"2026-03-09T22:00:01.999584","MEAN_MOTION":15.10096632,"ECCENTRICITY":0.0001265,"INCLINATION":42.9997,"RA_OF_ASC_NODE":42.1442,"ARG_OF_PERICENTER":246.7627,"MEAN_ANOMALY":27.0311,"EPHEMERIS_TYPE":0,"CLASSIFICATION_TYPE":"U","NORAD_CAT_ID":56012,"ELEMENT_SET_NO":999,"REV_AT_EPOCH":577,"BSTAR":0.0035837787,"MEAN_MOTION_DOT":0.0005968,"MEAN_MOTION_DDOT":0},{"OBJECT_NAME":"DELTA 1 DEB","OBJECT_ID":"1975-004G","EPOCH":"2026-03-09T15:36:08.786016","MEAN_MOTION":14.94952077,"ECCENTRICITY":0.0108933,"INCLINATION":98.7496,"RA_OF_ASC_NODE":312.2418,"ARG_OF_PERICENTER":37.6041,"MEAN_ANOMALY":323.2729,"EPHEMERIS_TYPE":0,"CLASSIFICATION_TYPE":"U","NORAD_CAT_ID":8679,"ELEMENT_SET_NO":999,"REV_AT_EPOCH":62753,"BSTAR":0.0013803,"MEAN_MOTION_DOT":0.00016927,"MEAN_MOTION_DDOT":0}]
